{
  "norad_id": 67192,
  "name": "STARLINK-36182",
  "history": [
    {
      "epoch": "2026-03-28T17:02:34.015488Z",
      "apogee_km": 574.8982976400375,
      "perigee_km": 569.1569056659037,
      "latitude_deg": 2.5817450220455234e-05,
      "longitude_deg": 44.74472010323483,
      "height_km": 574.4665381403361,
      "semi_major_axis_km": 6950.16460165297,
      "eccentricity": 0.00041304,
      "inclination_deg": 70.0013,
      "raan_deg": 126.5131,
      "arg_perigee_deg": 269.7934,
      "mean_anomaly_deg": 90.2752,
      "mean_motion_rev_day": 14.98339148
    },
    {
      "epoch": "2026-03-29T04:15:29.981376Z",
      "apogee_km": 574.9207261245765,
      "perigee_km": 569.0770518691079,
      "latitude_deg": -4.008664949573962e-05,
      "longitude_deg": -125.1275010851017,
      "height_km": 574.4931660566814,
      "semi_major_axis_km": 6950.1358889968415,
      "eccentricity": 0.0004204,
      "inclination_deg": 70.0007,
      "raan_deg": 125.3347,
      "arg_perigee_deg": 268.7125,
      "mean_anomaly_deg": 91.3552,
      "mean_motion_rev_day": 14.98348433
    },
    {
      "epoch": "2026-03-30T02:41:22.718400Z",
      "apogee_km": 574.4824649358006,
      "perigee_km": 569.5561941294281,
      "latitude_deg": 5.68389098467371e-05,
      "longitude_deg": -104.8715244644326,
      "height_km": 574.6529936928745,
      "semi_major_axis_km": 6950.156329532614,
      "eccentricity": 0.0003544,
      "inclination_deg": 70.0038,
      "raan_deg": 122.9816,
      "arg_perigee_deg": 265.2167,
      "mean_anomaly_deg": 94.8588,
      "mean_motion_rev_day": 14.98341823
    },
    {
      "epoch": "2026-03-30T05:53:38.765184Z",
      "apogee_km": 574.4940129207907,
      "perigee_km": 569.5445286341192,
      "latitude_deg": -1.1757776163810823e-05,
      "longitude_deg": -153.40591312668877,
      "height_km": 574.6951444785732,
      "semi_major_axis_km": 6950.156270777455,
      "eccentricity": 0.00035607,
      "inclination_deg": 70.0033,
      "raan_deg": 122.6457,
      "arg_perigee_deg": 264.2575,
      "mean_anomaly_deg": 95.8178,
      "mean_motion_rev_day": 14.98341842
    },
    {
      "epoch": "2026-03-30T12:18:11.559456Z",
      "apogee_km": 574.6635622925724,
      "perigee_km": 569.4532787936078,
      "latitude_deg": -1.3528628888222477e-05,
      "longitude_deg": 109.51733096537788,
      "height_km": 574.771642670994,
      "semi_major_axis_km": 6950.19542054309,
      "eccentricity": 0.00037483,
      "inclination_deg": 70.0013,
      "raan_deg": 121.9688,
      "arg_perigee_deg": 263.7204,
      "mean_anomaly_deg": 96.3528,
      "mean_motion_rev_day": 14.98329182
    },
    {
      "epoch": "2026-03-31T12:20:13.993440Z",
      "apogee_km": 574.8825746606071,
      "perigee_km": 569.2638857063221,
      "latitude_deg": -2.2375133816167313e-05,
      "longitude_deg": 105.49504575315477,
      "height_km": 574.6162884600092,
      "semi_major_axis_km": 6950.210230183465,
      "eccentricity": 0.00040421,
      "inclination_deg": 70.0004,
      "raan_deg": 119.4437,
      "arg_perigee_deg": 267.6619,
      "mean_anomaly_deg": 92.4077,
      "mean_motion_rev_day": 14.98324393
    },
    {
      "epoch": "2026-04-01T20:00:01.999008Z",
      "apogee_km": 574.8913398540981,
      "perigee_km": 569.2797301793262,
      "latitude_deg": -69.65477458574544,
      "longitude_deg": -91.56452640494811,
      "height_km": 594.746738317833,
      "semi_major_axis_km": 6950.222535016712,
      "eccentricity": 0.0004037,
      "inclination_deg": 69.9997,
      "raan_deg": 116.1168,
      "arg_perigee_deg": 266.4525,
      "mean_anomaly_deg": 7.8959,
      "mean_motion_rev_day": 14.98320414
    },
    {
      "epoch": "2026-04-02T09:11:59.145216Z",
      "apogee_km": 575.3326722035354,
      "perigee_km": 568.6562369256517,
      "latitude_deg": 1.5211861863003166e-05,
      "longitude_deg": 146.00139000343114,
      "height_km": 574.9192431372012,
      "semi_major_axis_km": 6950.131454564594,
      "eccentricity": 0.00048031,
      "inclination_deg": 69.9999,
      "raan_deg": 114.7306,
      "arg_perigee_deg": 261.4599,
      "mean_anomaly_deg": 98.6016,
      "mean_motion_rev_day": 14.98349867
    },
    {
      "epoch": "2026-04-03T07:37:51.733632Z",
      "apogee_km": 574.8393523483246,
      "perigee_km": 569.1235749238303,
      "latitude_deg": 1.4358020898961549e-05,
      "longitude_deg": 166.25425198902533,
      "height_km": 574.5943316044583,
      "semi_major_axis_km": 6950.118463636077,
      "eccentricity": 0.0004112,
      "inclination_deg": 69.9997,
      "raan_deg": 112.3738,
      "arg_perigee_deg": 266.301,
      "mean_anomaly_deg": 93.7679,
      "mean_motion_rev_day": 14.98354068
    },
    {
      "epoch": "2026-04-04T10:52:08.176224Z",
      "apogee_km": 574.8799945445726,
      "perigee_km": 569.1616826812751,
      "latitude_deg": 9.50502629137448e-05,
      "longitude_deg": 113.70574908139534,
      "height_km": 574.7871517597275,
      "semi_major_axis_km": 6950.157838612923,
      "eccentricity": 0.00041138,
      "inclination_deg": 70.0005,
      "raan_deg": 109.5124,
      "arg_perigee_deg": 263.2153,
      "mean_anomaly_deg": 96.8539,
      "mean_motion_rev_day": 14.98341335
    },
    {
      "epoch": "2026-04-05T14:00:03.000384Z",
      "apogee_km": 574.8318429480469,
      "perigee_km": 569.1492796513776,
      "latitude_deg": -22.468839034869784,
      "longitude_deg": 54.15161321969071,
      "height_km": 578.7374541931285,
      "semi_major_axis_km": 6950.127561299712,
      "eccentricity": 0.00040881,
      "inclination_deg": 69.9998,
      "raan_deg": 106.6611,
      "arg_perigee_deg": 270.469,
      "mean_anomaly_deg": 65.7321,
      "mean_motion_rev_day": 14.98351126
    },
    {
      "epoch": "2026-04-05T16:00:03.000096Z",
      "apogee_km": 574.784634968586,
      "perigee_km": 569.1619957234716,
      "latitude_deg": 58.95368804504503,
      "longitude_deg": 69.43584076907582,
      "height_km": 583.9226764268374,
      "semi_major_axis_km": 6950.110315346029,
      "eccentricity": 0.0004045,
      "inclination_deg": 69.9999,
      "raan_deg": 106.451,
      "arg_perigee_deg": 269.2953,
      "mean_anomaly_deg": 156.278,
      "mean_motion_rev_day": 14.98356703
    },
    {
      "epoch": "2026-04-06T06:07:45.116256Z",
      "apogee_km": 578.9324587421343,
      "perigee_km": 566.9057414777253,
      "latitude_deg": 8.515985966570962e-05,
      "longitude_deg": 178.47788996270782,
      "height_km": 569.412414688603,
      "semi_major_axis_km": 6951.0561001099295,
      "eccentricity": 0.0008651,
      "inclination_deg": 70.0002,
      "raan_deg": 104.9651,
      "arg_perigee_deg": 350.5204,
      "mean_anomaly_deg": 9.5791,
      "mean_motion_rev_day": 14.98050906
    },
    {
      "epoch": "2026-04-07T17:22:44.660064Z",
      "apogee_km": 575.2098193150769,
      "perigee_km": 569.0185355662115,
      "latitude_deg": -2.1491048310323128e-06,
      "longitude_deg": 4.5799943328228565,
      "height_km": 574.6622053778997,
      "semi_major_axis_km": 6950.251177440644,
      "eccentricity": 0.0004454,
      "inclination_deg": 70.0003,
      "raan_deg": 101.263,
      "arg_perigee_deg": 267.792,
      "mean_anomaly_deg": 92.2729,
      "mean_motion_rev_day": 14.98311152
    },
    {
      "epoch": "2026-04-08T11:00:13.858272Z",
      "apogee_km": 575.2422861604591,
      "perigee_km": 568.8898005788187,
      "latitude_deg": 1.4380119271708817e-05,
      "longitude_deg": 97.6336150086643,
      "height_km": 574.6325506218963,
      "semi_major_axis_km": 6950.203043369639,
      "eccentricity": 0.000457,
      "inclination_deg": 69.9993,
      "raan_deg": 99.4121,
      "arg_perigee_deg": 267.5151,
      "mean_anomaly_deg": 92.5485,
      "mean_motion_rev_day": 14.98326717
    },
    {
      "epoch": "2026-04-09T09:26:00.409056Z",
      "apogee_km": 575.7631268575587,
      "perigee_km": 567.7329516877826,
      "latitude_deg": -4.166405187305522e-06,
      "longitude_deg": 117.91509304463118,
      "height_km": 578.0006439609011,
      "semi_major_axis_km": 6949.885039272671,
      "eccentricity": 0.00057772,
      "inclination_deg": 70.0039,
      "raan_deg": 97.0587,
      "arg_perigee_deg": 197.6757,
      "mean_anomaly_deg": 162.4202,
      "mean_motion_rev_day": 14.98429556
    },
    {
      "epoch": "2026-04-10T09:28:06.026880Z",
      "apogee_km": 574.7243285389759,
      "perigee_km": 569.1462005394569,
      "latitude_deg": 6.332287707361457e-05,
      "longitude_deg": 113.87742915006659,
      "height_km": 574.4287475503069,
      "semi_major_axis_km": 6950.072264539216,
      "eccentricity": 0.0004013,
      "inclination_deg": 70.0015,
      "raan_deg": 94.5315,
      "arg_perigee_deg": 268.6657,
      "mean_anomaly_deg": 91.4043,
      "mean_motion_rev_day": 14.98369008
    },
    {
      "epoch": "2026-04-11T09:30:06.429600Z",
      "apogee_km": 574.7159962385249,
      "perigee_km": 569.2976641085224,
      "latitude_deg": -4.27232997046772e-05,
      "longitude_deg": 109.86429218580831,
      "height_km": 574.619640122213,
      "semi_major_axis_km": 6950.143830173523,
      "eccentricity": 0.0003898,
      "inclination_deg": 70.0042,
      "raan_deg": 92.0071,
      "arg_perigee_deg": 266.1017,
      "mean_anomaly_deg": 93.9696,
      "mean_motion_rev_day": 14.98345865
    },
    {
      "epoch": "2026-04-13T04:45:44.213760Z",
      "apogee_km": 574.7414042988376,
      "perigee_km": 569.3545939134301,
      "latitude_deg": 2.143849122035887e-05,
      "longitude_deg": 174.63383465047028,
      "height_km": 574.6373959039379,
      "semi_major_axis_km": 6950.184999106134,
      "eccentricity": 0.00038753,
      "inclination_deg": 70.0002,
      "raan_deg": 87.4607,
      "arg_perigee_deg": 266.571,
      "mean_anomaly_deg": 93.5006,
      "mean_motion_rev_day": 14.98332552
    },
    {
      "epoch": "2026-04-14T08:00:01.342368Z",
      "apogee_km": 574.6978651823765,
      "perigee_km": 569.3939026163562,
      "latitude_deg": -1.5817410928278538e-05,
      "longitude_deg": 122.08182427989155,
      "height_km": 574.682247261058,
      "semi_major_axis_km": 6950.182883899366,
      "eccentricity": 0.00038157,
      "inclination_deg": 70.0002,
      "raan_deg": 84.5987,
      "arg_perigee_deg": 265.4992,
      "mean_anomaly_deg": 94.5731,
      "mean_motion_rev_day": 14.98333236
    },
    {
      "epoch": "2026-04-15T16:02:42.516096Z",
      "apogee_km": 574.7074388261699,
      "perigee_km": 569.3710934890141,
      "latitude_deg": 2.6296252721686887e-05,
      "longitude_deg": -3.2723472921771197,
      "height_km": 574.6054813439983,
      "semi_major_axis_km": 6950.176266157591,
      "eccentricity": 0.0003839,
      "inclination_deg": 70.0001,
      "raan_deg": 81.2321,
      "arg_perigee_deg": 267.0363,
      "mean_anomaly_deg": 93.0357,
      "mean_motion_rev_day": 14.98335376
    },
    {
      "epoch": "2026-04-16T20:53:07.622304Z",
      "apogee_km": 574.6542513966897,
      "perigee_km": 569.4138224348553,
      "latitude_deg": -3.954929055789545e-06,
      "longitude_deg": -80.09119446672298,
      "height_km": 574.6395617368456,
      "semi_major_axis_km": 6950.171036915772,
      "eccentricity": 0.000377,
      "inclination_deg": 70.0003,
      "raan_deg": 78.2023,
      "arg_perigee_deg": 266.12,
      "mean_anomaly_deg": 93.9528,
      "mean_motion_rev_day": 14.98337067
    },
    {
      "epoch": "2026-04-17T20:55:08.403456Z",
      "apogee_km": 574.308835608972,
      "perigee_km": 569.7204844860416,
      "latitude_deg": -2.4012109782825378e-05,
      "longitude_deg": -84.10797811149453,
      "height_km": 574.7912132161608,
      "semi_major_axis_km": 6950.151660047506,
      "eccentricity": 0.00033009,
      "inclination_deg": 70.0016,
      "raan_deg": 75.6758,
      "arg_perigee_deg": 261.2585,
      "mean_anomaly_deg": 98.82,
      "mean_motion_rev_day": 14.98343333
    }
  ]
}